0 DELTA 1 DEB
1 07015U 73086F   13281.50549894 -.00000049  00000-0 -21946-3 0   593
2 07015 101.8121 020.4525 0401369 019.8965 041.2160 11.66150965699804
0 DELTA 1 DEB
1 07015U 73086F   13283.82461503 -.00000048  00000-0 -20615-3 0   603
2 07015 101.8125 022.4090 0401315 016.1123 057.2027 11.66150641700076
0 DELTA 1 DEB
1 07015U 73086F   13286.15011846 -.00000034  00000-0  15003-4 0   614
2 07015 101.8127 024.3698 0401312 012.3218 099.9987 11.66150645700345
0 DELTA 1 DEB
1 07015U 73086F   13288.19725784 -.00000007  00000-0  42938-3 0   620
2 07015 101.8128 026.0965 0401298 008.9861 054.1817 11.66150666700584
0 DELTA 1 DEB
1 07015U 73086F   13290.51331260 -.00000001  00000-0  51170-3 0   634
2 07015 101.8125 028.0501 0401275 005.2094 057.3110 11.66150564700850
0 DELTA 1 DEB
1 07015U 73086F   13292.84043234 -.00000003  00000-0  49044-3 0   643
2 07015 101.8121 030.0131 0401259 001.4129 106.8941 11.66150751701128
0 DELTA 1 DEB
1 07015U 73086F   13294.96809672 -.00000006  00000-0  44763-3 0   651
2 07015 101.8119 031.8076 0401244 357.9416 039.1366 11.66150914701371
